FENGYUN 1C DEB          
1 31488U 99025BWC 17345.00446581  .00001497  00000-0  53049-3 0  9992
2 31488 102.6723 279.1473 0088257 290.6936  68.4790 14.35057581229056
